IRIDIUM 921 [-]         
1 24873U 97034E   24040.84178534  .00031595  00000+0  10377-2 0  9999
2 24873  86.3886 351.2210 0006955  52.4742 307.7138 15.31409528455773
IRIDIUM 26 [-]          
1 24903U 97043A   24041.14011820  .00000746  00000+0  24911-3 0  9995
2 24903  86.3988 317.5094 0001954  82.7352 277.4067 14.36199093386428
IRIDIUM 22 [-]          
1 24907U 97043E   24040.33007389  .00000743  00000+0  25376-3 0  9997
2 24907  86.3995 320.9829 0002198  84.4655 275.6792 14.35095543385923
DUMMY MASS 1 [-]        
1 24925U 97048A   24040.92380493  .00000886  00000+0  98091-4 0  9990
2 24925  86.3376   3.2313 0009283  92.9705 267.2581 14.86038171432091
DUMMY MASS 2 [-]        
1 24926U 97048B   24040.93963460  .00000869  00000+0  96748-4 0  9991
2 24926  86.3374   4.7434 0010017 101.4744 258.7606 14.85797837431885
IRIDIUM 29 [-]          
1 24944U 97051A   24040.79187788  .00000693  00000+0  23389-3 0  9995
2 24944  86.4001 350.7189 0002446  84.3836 275.7639 14.35548641382682
IRIDIUM 33 [-]          
1 24946U 97051C   24040.83986409  .00000616  00000+0  21287-3 0  9999
2 24946  86.3915 349.9613 0005879 241.8258 118.2344 14.34253282382025
IRIDIUM 28 [-]          
1 24948U 97051E   24040.81097052  .00000877  00000+0  29233-3 0  9994
2 24948  86.4007 348.5114 0001762  85.8279 274.3119 14.36496550383065
